STARLINK-35977          
1 66604U 25270S   26030.91667824 -.02341556  00000+0 -88391-1 0  9999
2 66604  42.9996 269.1384 0001178 244.7915 100.5471 15.30197237  5703
STARLINK-36052          
1 66605U 25270T   26030.91667824  .00010565  00000+0  39321-3 0  9990
2 66605  42.9985 269.6444 0001151 265.2423 227.4706 15.27552500  5903
STARLINK-36063          
1 66606U 25270U   26030.93500891  .00027537  00000+0  98052-3 0  9996
2 66606  42.9992 269.2349 0002204   6.5123 353.5758 15.28435674 11936
STARLINK-35993          
1 66607U 25270V   26029.71311203  .00029862  00000+0  10606-2 0  9999
2 66607  42.9972 276.4048 0003127 266.2396  93.8099 15.28481180 11646
STARLINK-36036          
1 66608U 25270W   26030.91667824  .00000047  00000+0  11249-4 0  9997
2 66608  42.9999 269.2695 0001200 256.0652  32.2836 15.27567879  5857
STARLINK-36034          
1 66609U 25270X   26030.71441805  .00027400  00000+0  10009-2 0  9998
2 66609  43.0001 271.0171 0002883 293.2800  66.7748 15.27599094 11732
STARLINK-35680          
1 66610U 25270Y   26030.68614634  .00037904  00000+0  13788-2 0  9995
2 66610  42.9945 270.8038 0001101 223.1657 136.9108 15.27605275 12002
STARLINK-35583          
1 66611U 25270Z   26030.67843430  .00029411  00000+0  10736-2 0  9997
2 66611  42.9957 270.7470 0000609 252.6559 107.4226 15.27593721 12001
STARLINK-36039          
1 66612U 25270AA  26030.91667824  .00012143  00000+0  45035-3 0  9991
2 66612  42.9986 269.6828 0002580 261.5888 216.9134 15.27558850  5901
STARLINK-36037          
1 66613U 25270AB  26030.91667824  .00000502  00000+0  27165-4 0  9993
2 66613  42.9992 269.5766 0001624 263.4775 259.0210 15.28410047  5890
STARLINK-36040          
1 66614U 25270AC  26030.91667824  .00006537  00000+0  24726-3 0  9997
2 66614  42.9995 269.8481 0001197 284.6599 123.2010 15.27527712  5803
STARLINK-35988          
1 66615U 25270AD  26030.91667824 -.00042082  00000+0 -15279-2 0  9997
2 66615  42.9996 269.3912 0002053 261.4609 337.3391 15.27589562  5896
STARLINK-35391          
1 66616U 25270AE  26030.96568330  .00024126  00000+0  88345-3 0  9997
2 66616  42.9996 269.4663 0001616 267.6671  92.3995 15.27577048 12041
STARLINK-35940          
1 66617U 25271A   26030.91667824 -.00009915  00000+0 -32302-3 0  9995
2 66617  53.1603 315.5260 0001557 105.5554 180.8997 15.30205198  5798
STARLINK-35970          
1 66618U 25271B   26030.95630395  .00018226  00000+0  62571-3 0  9997
2 66618  53.1594 314.9016 0001350  91.3111 268.8045 15.30214532 11792
STARLINK-35951          
1 66619U 25271C   26030.93425177  .00035535  00000+0  12046-2 0  9999
2 66619  53.1576 315.4757 0003110 147.9688 212.1502 15.30240759 11783
