[{"OBJECT_NAME":"STARLINK-35977","OBJECT_ID":"2025-270S","EPOCH":"2026-01-30T22:00:00.999936","MEAN_MOTION":15.30197237,"ECCENTRICITY":0.00011785,"INCLINATION":42.9996,"RA_OF_ASC_NODE":269.1384,"ARG_OF_PERICENTER":244.7915,"MEAN_ANOMALY":100.5471,"EPHEMERIS_TYPE":0,"CLASSIFICATION_TYPE":"U","NORAD_CAT_ID":66604,"ELEMENT_SET_NO":999,"REV_AT_EPOCH":570,"BSTAR":-0.088390563,"MEAN_MOTION_DOT":-0.02341556,"MEAN_MOTION_DDOT":0},{"OBJECT_NAME":"STARLINK-36052","OBJECT_ID":"2025-270T","EPOCH":"2026-01-30T22:00:00.999936","MEAN_MOTION":15.275525,"ECCENTRICITY":0.00011512,"INCLINATION":42.9985,"RA_OF_ASC_NODE":269.6444,"ARG_OF_PERICENTER":265.2423,"MEAN_ANOMALY":227.4706,"EPHEMERIS_TYPE":0,"CLASSIFICATION_TYPE":"U","NORAD_CAT_ID":66605,"ELEMENT_SET_NO":999,"REV_AT_EPOCH":590,"BSTAR":0.00039321191,"MEAN_MOTION_DOT":0.00010565,"MEAN_MOTION_DDOT":0},{"OBJECT_NAME":"STARLINK-36063","OBJECT_ID":"2025-270U","EPOCH":"2026-01-30T22:26:24.769824","MEAN_MOTION":15.28435674,"ECCENTRICITY":0.00022042,"INCLINATION":42.9992,"RA_OF_ASC_NODE":269.2349,"ARG_OF_PERICENTER":6.5123,"MEAN_ANOMALY":353.5758,"EPHEMERIS_TYPE":0,"CLASSIFICATION_TYPE":"U","NORAD_CAT_ID":66606,"ELEMENT_SET_NO":999,"REV_AT_EPOCH":1193,"BSTAR":0.00098051611,"MEAN_MOTION_DOT":0.00027537,"MEAN_MOTION_DDOT":0},{"OBJECT_NAME":"STARLINK-35993","OBJECT_ID":"2025-270V","EPOCH":"2026-01-29T17:06:52.879392","MEAN_MOTION":15.2848118,"ECCENTRICITY":0.00031273,"INCLINATION":42.9972,"RA_OF_ASC_NODE":276.4048,"ARG_OF_PERICENTER":266.2396,"MEAN_ANOMALY":93.8099,"EPHEMERIS_TYPE":0,"CLASSIFICATION_TYPE":"U","NORAD_CAT_ID":66607,"ELEMENT_SET_NO":999,"REV_AT_EPOCH":1164,"BSTAR":0.001060636,"MEAN_MOTION_DOT":0.00029862,"MEAN_MOTION_DDOT":0},{"OBJECT_NAME":"STARLINK-36036","OBJECT_ID":"2025-270W","EPOCH":"2026-01-30T22:00:00.999936","MEAN_MOTION":15.27567879,"ECCENTRICITY":0.00012,"INCLINATION":42.9999,"RA_OF_ASC_NODE":269.2695,"ARG_OF_PERICENTER":256.0652,"MEAN_ANOMALY":32.2836,"EPHEMERIS_TYPE":0,"CLASSIFICATION_TYPE":"U","NORAD_CAT_ID":66608,"ELEMENT_SET_NO":999,"REV_AT_EPOCH":585,"BSTAR":1.1248937e-5,"MEAN_MOTION_DOT":4.7e-7,"MEAN_MOTION_DDOT":0},{"OBJECT_NAME":"STARLINK-36034","OBJECT_ID":"2025-270X","EPOCH":"2026-01-30T17:08:45.719520","MEAN_MOTION":15.27599094,"ECCENTRICITY":0.00028831,"INCLINATION":43.0001,"RA_OF_ASC_NODE":271.0171,"ARG_OF_PERICENTER":293.28,"MEAN_ANOMALY":66.7748,"EPHEMERIS_TYPE":0,"CLASSIFICATION_TYPE":"U","NORAD_CAT_ID":66609,"ELEMENT_SET_NO":999,"REV_AT_EPOCH":1173,"BSTAR":0.0010008826,"MEAN_MOTION_DOT":0.000274,"MEAN_MOTION_DDOT":0},{"OBJECT_NAME":"STARLINK-35680","OBJECT_ID":"2025-270Y","EPOCH":"2026-01-30T16:28:03.043776","MEAN_MOTION":15.27605275,"ECCENTRICITY":0.00011014,"INCLINATION":42.9945,"RA_OF_ASC_NODE":270.8038,"ARG_OF_PERICENTER":223.1657,"MEAN_ANOMALY":136.9108,"EPHEMERIS_TYPE":0,"CLASSIFICATION_TYPE":"U","NORAD_CAT_ID":66610,"ELEMENT_SET_NO":999,"REV_AT_EPOCH":1200,"BSTAR":0.0013788114,"MEAN_MOTION_DOT":0.00037904,"MEAN_MOTION_DDOT":0},{"OBJECT_NAME":"STARLINK-35583","OBJECT_ID":"2025-270Z","EPOCH":"2026-01-30T16:16:56.723520","MEAN_MOTION":15.27593721,"ECCENTRICITY":6.094e-5,"INCLINATION":42.9957,"RA_OF_ASC_NODE":270.747,"ARG_OF_PERICENTER":252.6559,"MEAN_ANOMALY":107.4226,"EPHEMERIS_TYPE":0,"CLASSIFICATION_TYPE":"U","NORAD_CAT_ID":66611,"ELEMENT_SET_NO":999,"REV_AT_EPOCH":1200,"BSTAR":0.0010735738,"MEAN_MOTION_DOT":0.00029411,"MEAN_MOTION_DDOT":0},{"OBJECT_NAME":"STARLINK-36039","OBJECT_ID":"2025-270AA","EPOCH":"2026-01-30T22:00:00.999936","MEAN_MOTION":15.2755885,"ECCENTRICITY":0.00025804,"INCLINATION":42.9986,"RA_OF_ASC_NODE":269.6828,"ARG_OF_PERICENTER":261.5888,"MEAN_ANOMALY":216.9134,"EPHEMERIS_TYPE":0,"CLASSIFICATION_TYPE":"U","NORAD_CAT_ID":66612,"ELEMENT_SET_NO":999,"REV_AT_EPOCH":590,"BSTAR":0.00045034918,"MEAN_MOTION_DOT":0.00012143,"MEAN_MOTION_DDOT":0},{"OBJECT_NAME":"STARLINK-36037","OBJECT_ID":"2025-270AB","EPOCH":"2026-01-30T22:00:00.999936","MEAN_MOTION":15.28410047,"ECCENTRICITY":0.00016249,"INCLINATION":42.9992,"RA_OF_ASC_NODE":269.5766,"ARG_OF_PERICENTER":263.4775,"MEAN_ANOMALY":259.021,"EPHEMERIS_TYPE":0,"CLASSIFICATION_TYPE":"U","NORAD_CAT_ID":66613,"ELEMENT_SET_NO":999,"REV_AT_EPOCH":589,"BSTAR":2.7165435e-5,"MEAN_MOTION_DOT":5.02e-6,"MEAN_MOTION_DDOT":0},{"OBJECT_NAME":"STARLINK-36040","OBJECT_ID":"2025-270AC","EPOCH":"2026-01-30T22:00:00.999936","MEAN_MOTION":15.27527712,"ECCENTRICITY":0.0001197,"INCLINATION":42.9995,"RA_OF_ASC_NODE":269.8481,"ARG_OF_PERICENTER":284.6599,"MEAN_ANOMALY":123.201,"EPHEMERIS_TYPE":0,"CLASSIFICATION_TYPE":"U","NORAD_CAT_ID":66614,"ELEMENT_SET_NO":999,"REV_AT_EPOCH":580,"BSTAR":0.00024726076,"MEAN_MOTION_DOT":6.537e-5,"MEAN_MOTION_DDOT":0},{"OBJECT_NAME":"STARLINK-35988","OBJECT_ID":"2025-270AD","EPOCH":"2026-01-30T22:00:00.999936","MEAN_MOTION":15.27589562,"ECCENTRICITY":0.00020538,"INCLINATION":42.9996,"RA_OF_ASC_NODE":269.3912,"ARG_OF_PERICENTER":261.4609,"MEAN_ANOMALY":337.3391,"EPHEMERIS_TYPE":0,"CLASSIFICATION_TYPE":"U","NORAD_CAT_ID":66615,"ELEMENT_SET_NO":999,"REV_AT_EPOCH":589,"BSTAR":-0.0015278684,"MEAN_MOTION_DOT":-0.00042082,"MEAN_MOTION_DDOT":0},{"OBJECT_NAME":"STARLINK-35391","OBJECT_ID":"2025-270AE","EPOCH":"2026-01-30T23:10:35.037120","MEAN_MOTION":15.27577048,"ECCENTRICITY":0.00016168,"INCLINATION":42.9996,"RA_OF_ASC_NODE":269.4663,"ARG_OF_PERICENTER":267.6671,"MEAN_ANOMALY":92.3995,"EPHEMERIS_TYPE":0,"CLASSIFICATION_TYPE":"U","NORAD_CAT_ID":66616,"ELEMENT_SET_NO":999,"REV_AT_EPOCH":1204,"BSTAR":0.00088345296,"MEAN_MOTION_DOT":0.00024126,"MEAN_MOTION_DDOT":0},{"OBJECT_NAME":"STARLINK-35940","OBJECT_ID":"2025-271A","EPOCH":"2026-01-30T22:00:00.999936","MEAN_MOTION":15.30205198,"ECCENTRICITY":0.00015571,"INCLINATION":53.1603,"RA_OF_ASC_NODE":315.526,"ARG_OF_PERICENTER":105.5554,"MEAN_ANOMALY":180.8997,"EPHEMERIS_TYPE":0,"CLASSIFICATION_TYPE":"U","NORAD_CAT_ID":66617,"ELEMENT_SET_NO":999,"REV_AT_EPOCH":579,"BSTAR":-0.00032302367,"MEAN_MOTION_DOT":-9.915e-5,"MEAN_MOTION_DDOT":0},{"OBJECT_NAME":"STARLINK-35970","OBJECT_ID":"2025-271B","EPOCH":"2026-01-30T22:57:04.661280","MEAN_MOTION":15.30214532,"ECCENTRICITY":0.00013507,"INCLINATION":53.1594,"RA_OF_ASC_NODE":314.9016,"ARG_OF_PERICENTER":91.3111,"MEAN_ANOMALY":268.8045,"EPHEMERIS_TYPE":0,"CLASSIFICATION_TYPE":"U","NORAD_CAT_ID":66618,"ELEMENT_SET_NO":999,"REV_AT_EPOCH":1179,"BSTAR":0.00062570816,"MEAN_MOTION_DOT":0.00018226,"MEAN_MOTION_DDOT":0},{"OBJECT_NAME":"STARLINK-35951","OBJECT_ID":"2025-271C","EPOCH":"2026-01-30T22:25:19.352928","MEAN_MOTION":15.30240759,"ECCENTRICITY":0.00031107,"INCLINATION":53.1576,"RA_OF_ASC_NODE":315.4757,"ARG_OF_PERICENTER":147.9688,"MEAN_ANOMALY":212.1502,"EPHEMERIS_TYPE":0,"CLASSIFICATION_TYPE":"U","NORAD_CAT_ID":66619,"ELEMENT_SET_NO":999,"REV_AT_EPOCH":1178,"BSTAR":0.0012045653,"MEAN_MOTION_DOT":0.00035535,"MEAN_MOTION_DDOT":0}]
